*******************************************************************************
Ephemeris / WWW_USER Mon Mar 10 07:06:44 2025 Pasadena, USA      / Horizons    
*******************************************************************************
Target body name: (2019 AK3)                      {source: JPL#8}
Center body name: Earth (399)                     {source: DE441}
Center-site name: Mauna Kea
*******************************************************************************
Start time      : A.D. 2018-Aug-18 04:58:00.0000 UT      
Stop  time      : A.D. 2018-Aug-18 15:53:00.0000 UT      
Step-size       : 1 minutes
*******************************************************************************
Target pole/equ : undefined
Target radii    : undefined                                                    
Center geodetic : 204.5278, 19.8260847, 4.21024   {E-lon(deg),Lat(deg),Alt(km)}
Center cylindric: 204.5278, 6006.35451, 2151.0229 {E-lon(deg),Dxy(km),Dz(km)}
Center pole/equ : ITRF93                          {East-longitude positive}
Center radii    : 6378.137, 6378.137, 6356.752 km {Equator_a, b, pole_c}       
Target primary  : Sun
Vis. interferer : MOON (R_eq= 1737.400) km        {source: DE441}
Rel. light bend : Sun                             {source: DE441}
Rel. lght bnd GM: 1.3271E+11 km^3/s^2                                          
Small-body perts: Yes                             {source: SB441-N16}
Atmos refraction: NO (AIRLESS)
RA format       : HMS
Time format     : CAL 
Calendar mode   : Mixed Julian/Gregorian
RTS-only print  : NO       
EOP file        : eop.250307.p250603                                           
EOP coverage    : DATA-BASED 1962-JAN-20 TO 2025-MAR-07. PREDICTS-> 2025-JUN-02
Units conversion: 1 au= 149597870.700 km, c= 299792.458 km/s, 1 day= 86400.0 s 
Table cut-offs 1: Elevation (-90.0deg=NO ),Airmass (>38.000=NO), Daylight (YES)
Table cut-offs 2: Solar elongation (  0.0,180.0=NO ),Local Hour Angle( 0.0=NO )
Table cut-offs 3: RA/DEC angular rate (     0.0=NO )                           
*******************************************************************************
Initial IAU76/J2000 heliocentric ecliptic osculating elements (au, days, deg.):
  EPOCH=  2458490.5 ! 2019-Jan-07.00 (TDB)         Residual RMS= .10027        
   EC= .4460441123274964   QR= .8736665173848456   TP= 2458534.5649506859      
   OM= 293.7231565418804   W=  230.0622942544228   IN= 4.899135051513321       
  Equivalent ICRF heliocentric cartesian coordinates (au, au/d):
   X=-2.869453413579581E-01  Y= 8.924440573967301E-01  Z= 3.991223626471717E-01
  VX=-1.652766681412374E-02 VY=-9.271695064707189E-03 VZ=-5.840432387800149E-03
Asteroid physical parameters (km, seconds, rotational period in hours):        
   GM= n.a.                RAD= n.a.               ROTPER= n.a.                
   H= 27.                  G= .150                 B-V= n.a.                   
                           ALBEDO= n.a.            STYP= n.a.                  
*******************************************************************************
 Date__(UT)__HR:MN     R.A._________(ICRF)_________DEC
******************************************************
$$SOE
 2018-Aug-18 15:13 A   03 42 37.860104 +25 24 29.11809
 2018-Aug-18 15:14 N   03 42 37.932470 +25 24 29.44581
 2018-Aug-18 15:15 N   03 42 38.004834 +25 24 29.77348
 2018-Aug-18 15:16 N   03 42 38.077196 +25 24 30.10112
 2018-Aug-18 15:17 N   03 42 38.149555 +25 24 30.42871
 2018-Aug-18 15:18 N   03 42 38.221914 +25 24 30.75626
 2018-Aug-18 15:19 N   03 42 38.294270 +25 24 31.08377
 2018-Aug-18 15:20 N   03 42 38.366624 +25 24 31.41124
 2018-Aug-18 15:21 N   03 42 38.438977 +25 24 31.73867
 2018-Aug-18 15:22 N   03 42 38.511328 +25 24 32.06606
 2018-Aug-18 15:23 N   03 42 38.583677 +25 24 32.39340
 2018-Aug-18 15:24 N   03 42 38.656024 +25 24 32.72071
 2018-Aug-18 15:25 N   03 42 38.728370 +25 24 33.04797
 2018-Aug-18 15:26 N   03 42 38.800714 +25 24 33.37519
 2018-Aug-18 15:27 N   03 42 38.873057 +25 24 33.70237
 2018-Aug-18 15:28 N   03 42 38.945398 +25 24 34.02951
 2018-Aug-18 15:29 N   03 42 39.017738 +25 24 34.35660
 2018-Aug-18 15:30 N   03 42 39.090076 +25 24 34.68366
 2018-Aug-18 15:31 N   03 42 39.162412 +25 24 35.01067
 2018-Aug-18 15:32 N   03 42 39.234747 +25 24 35.33764
 2018-Aug-18 15:33 N   03 42 39.307081 +25 24 35.66457
 2018-Aug-18 15:34 N   03 42 39.379413 +25 24 35.99146
 2018-Aug-18 15:35 N   03 42 39.451744 +25 24 36.31831
 2018-Aug-18 15:36 N   03 42 39.524074 +25 24 36.64511
 2018-Aug-18 15:37 N   03 42 39.596402 +25 24 36.97188
 2018-Aug-18 15:38 N   03 42 39.668729 +25 24 37.29860
 2018-Aug-18 15:39 N   03 42 39.741055 +25 24 37.62527
 2018-Aug-18 15:40 N   03 42 39.813379 +25 24 37.95191
 2018-Aug-18 15:41 C   03 42 39.885703 +25 24 38.27851
 2018-Aug-18 15:42 C   03 42 39.958025 +25 24 38.60506
 2018-Aug-18 15:43 C   03 42 40.030346 +25 24 38.93157
 2018-Aug-18 15:44 C   03 42 40.102666 +25 24 39.25804
 2018-Aug-18 15:45 C   03 42 40.174985 +25 24 39.58446
 2018-Aug-18 15:46 C   03 42 40.247303 +25 24 39.91085
 2018-Aug-18 15:47 C   03 42 40.319620 +25 24 40.23719
 2018-Aug-18 15:48 C   03 42 40.391936 +25 24 40.56349
 2018-Aug-18 15:49 C   03 42 40.464251 +25 24 40.88975
 2018-Aug-18 15:50 C   03 42 40.536565 +25 24 41.21596
 2018-Aug-18 15:51 C   03 42 40.608878 +25 24 41.54214
 2018-Aug-18 15:52 C   03 42 40.681191 +25 24 41.86827
 2018-Aug-18 15:53 C   03 42 40.753503 +25 24 42.19436
